SL-8 R/B                
1 08459U 75112B   26150.58185580  .00000239  00000+0  87109-4 0  9998
2 08459  74.0609 228.2608 0016677 297.2619  62.6836 14.38237919643646
SL-3 R/B                
1 10114U 77057B   26150.76040286  .00013991  00000+0  27415-3 0  9994
2 10114  97.5824 326.4639 0006516 359.2775   0.8464 15.47479542681019
SEASAT 1                
1 10967U 78064A   26150.39408233  .00000419  00000+0  15523-3 0  9996
2 10967 108.0149 296.9407 0002289 243.9259 116.1652 14.46227883518326
SL-14 R/B               
1 11267U 79011B   26150.60435573  .00000642  00000+0  60718-4 0  9999
2 11267  82.5250  18.8409 0016937 139.6103 220.6378 14.91996634540997
SL-8 R/B                
1 11574U 79089B   26150.58828985  .00000344  00000+0  11168-3 0  9998
2 11574  74.0691 299.4361 0014822  90.4106 269.8749 14.42395064447916
SL-14 R/B               
1 11672U 80005B   26150.53706748  .00000639  00000+0  61969-4 0  9996
2 11672  82.5153 229.5811 0014255 248.2231 111.7472 14.91012607488688
SL-8 R/B                
1 12139U 81003B   26150.63683949  .00016508  00000+0  41066-3 0  9999
2 12139  82.9389 214.0712 0251124 252.7416 104.6199 15.13686131327069
SL-3 R/B                
1 12465U 81046B   26150.82114282  .00012591  00000+0  27526-3 0  9991
2 12465  81.2303 190.9825 0019587  94.6080 265.7402 15.43816880451097
SL-3 R/B                
1 12904U 81103B   26150.76583169  .00005850  00000+0  25370-3 0  9995
2 12904  81.1573 117.0968 0013232  16.4649 343.7009 15.22120420985711
SL-3 R/B                
1 13068U 82013B   26150.80901431  .00004429  00000+0  18813-3 0  9994
2 13068  81.1755  64.4529 0020601 262.4243  97.4649 15.22663174416848
SL-3 R/B                
1 13154U 82039B   26150.87763943  .00003697  00000+0  22110-3 0  9990
2 13154  81.1411 121.0902 0030601  51.4730 308.9231 15.10426947394042
SL-3 R/B                
1 13403U 82079B   26150.80214420  .00006388  00000+0  24849-3 0  9996
2 13403  81.1459  96.0466 0022564 246.4398 113.4465 15.25624056390212
SL-14 R/B               
1 13553U 82092B   26150.82272375  .00000573  00000+0  61411-4 0  9999
2 13553  82.5688  64.5497 0021202  32.5210  29.1164 14.86733182341139
