[
    {
        "OBJECT_NAME": "SL-8 R/B",
        "OBJECT_ID": "1975-112B",
        "EPOCH": "2026-05-30T13:57:52.341120",
        "MEAN_MOTION": 14.38237919,
        "ECCENTRICITY": 0.0016677,
        "INCLINATION": 74.0609,
        "RA_OF_ASC_NODE": 228.2608,
        "ARG_OF_PERICENTER": 297.2619,
        "MEAN_ANOMALY": 62.6836,
        "EPHEMERIS_TYPE": 0,
        "CLASSIFICATION_TYPE": "U",
        "NORAD_CAT_ID": 8459,
        "ELEMENT_SET_NO": 999,
        "REV_AT_EPOCH": 64364,
        "BSTAR": 8.7109e-05,
        "MEAN_MOTION_DOT": 2.39e-06,
        "MEAN_MOTION_DDOT": 0
    },
    {
        "OBJECT_NAME": "SL-3 R/B",
        "OBJECT_ID": "1977-057B",
        "EPOCH": "2026-05-30T18:14:58.807104",
        "MEAN_MOTION": 15.47479542,
        "ECCENTRICITY": 0.0006516,
        "INCLINATION": 97.5824,
        "RA_OF_ASC_NODE": 326.4639,
        "ARG_OF_PERICENTER": 359.2775,
        "MEAN_ANOMALY": 0.8464,
        "EPHEMERIS_TYPE": 0,
        "CLASSIFICATION_TYPE": "U",
        "NORAD_CAT_ID": 10114,
        "ELEMENT_SET_NO": 999,
        "REV_AT_EPOCH": 68101,
        "BSTAR": 0.00027415,
        "MEAN_MOTION_DOT": 0.00013991,
        "MEAN_MOTION_DDOT": 0
    },
    {
        "OBJECT_NAME": "SEASAT 1",
        "OBJECT_ID": "1978-064A",
        "EPOCH": "2026-05-30T09:27:28.713312",
        "MEAN_MOTION": 14.46227883,
        "ECCENTRICITY": 0.00022895,
        "INCLINATION": 108.0149,
        "RA_OF_ASC_NODE": 296.9407,
        "ARG_OF_PERICENTER": 243.9259,
        "MEAN_ANOMALY": 116.1652,
        "EPHEMERIS_TYPE": 0,
        "CLASSIFICATION_TYPE": "U",
        "NORAD_CAT_ID": 10967,
        "ELEMENT_SET_NO": 999,
        "REV_AT_EPOCH": 51832,
        "BSTAR": 0.00015522719,
        "MEAN_MOTION_DOT": 4.19e-06,
        "MEAN_MOTION_DDOT": 0
    },
    {
        "OBJECT_NAME": "SL-14 R/B",
        "OBJECT_ID": "1979-011B",
        "EPOCH": "2026-05-30T14:30:16.335072",
        "MEAN_MOTION": 14.91996634,
        "ECCENTRICITY": 0.0016937,
        "INCLINATION": 82.525,
        "RA_OF_ASC_NODE": 18.8409,
        "ARG_OF_PERICENTER": 139.6103,
        "MEAN_ANOMALY": 220.6378,
        "EPHEMERIS_TYPE": 0,
        "CLASSIFICATION_TYPE": "U",
        "NORAD_CAT_ID": 11267,
        "ELEMENT_SET_NO": 999,
        "REV_AT_EPOCH": 54099,
        "BSTAR": 6.0718e-05,
        "MEAN_MOTION_DOT": 6.42e-06,
        "MEAN_MOTION_DDOT": 0
    },
    {
        "OBJECT_NAME": "SL-8 R/B",
        "OBJECT_ID": "1979-089B",
        "EPOCH": "2026-05-30T14:07:08.243040",
        "MEAN_MOTION": 14.42395064,
        "ECCENTRICITY": 0.0014822,
        "INCLINATION": 74.0691,
        "RA_OF_ASC_NODE": 299.4361,
        "ARG_OF_PERICENTER": 90.4106,
        "MEAN_ANOMALY": 269.8749,
        "EPHEMERIS_TYPE": 0,
        "CLASSIFICATION_TYPE": "U",
        "NORAD_CAT_ID": 11574,
        "ELEMENT_SET_NO": 999,
        "REV_AT_EPOCH": 44791,
        "BSTAR": 0.00011168,
        "MEAN_MOTION_DOT": 3.44e-06,
        "MEAN_MOTION_DDOT": 0
    },
    {
        "OBJECT_NAME": "SL-14 R/B",
        "OBJECT_ID": "1980-005B",
        "EPOCH": "2026-05-30T12:53:22.630272",
        "MEAN_MOTION": 14.91012607,
        "ECCENTRICITY": 0.0014255,
        "INCLINATION": 82.5153,
        "RA_OF_ASC_NODE": 229.5811,
        "ARG_OF_PERICENTER": 248.2231,
        "MEAN_ANOMALY": 111.7472,
        "EPHEMERIS_TYPE": 0,
        "CLASSIFICATION_TYPE": "U",
        "NORAD_CAT_ID": 11672,
        "ELEMENT_SET_NO": 999,
        "REV_AT_EPOCH": 48868,
        "BSTAR": 6.1969e-05,
        "MEAN_MOTION_DOT": 6.39e-06,
        "MEAN_MOTION_DDOT": 0
    },
    {
        "OBJECT_NAME": "SL-8 R/B",
        "OBJECT_ID": "1981-003B",
        "EPOCH": "2026-05-30T15:17:02.931936",
        "MEAN_MOTION": 15.13686131,
        "ECCENTRICITY": 0.0251124,
        "INCLINATION": 82.9389,
        "RA_OF_ASC_NODE": 214.0712,
        "ARG_OF_PERICENTER": 252.7416,
        "MEAN_ANOMALY": 104.6199,
        "EPHEMERIS_TYPE": 0,
        "CLASSIFICATION_TYPE": "U",
        "NORAD_CAT_ID": 12139,
        "ELEMENT_SET_NO": 999,
        "REV_AT_EPOCH": 32706,
        "BSTAR": 0.00041066,
        "MEAN_MOTION_DOT": 0.00016508,
        "MEAN_MOTION_DDOT": 0
    },
    {
        "OBJECT_NAME": "SL-3 R/B",
        "OBJECT_ID": "1981-046B",
        "EPOCH": "2026-05-30T19:42:26.739648",
        "MEAN_MOTION": 15.4381688,
        "ECCENTRICITY": 0.0019587,
        "INCLINATION": 81.2303,
        "RA_OF_ASC_NODE": 190.9825,
        "ARG_OF_PERICENTER": 94.608,
        "MEAN_ANOMALY": 265.7402,
        "EPHEMERIS_TYPE": 0,
        "CLASSIFICATION_TYPE": "U",
        "NORAD_CAT_ID": 12465,
        "ELEMENT_SET_NO": 999,
        "REV_AT_EPOCH": 45109,
        "BSTAR": 0.00027526,
        "MEAN_MOTION_DOT": 0.00012591,
        "MEAN_MOTION_DDOT": 0
    },
    {
        "OBJECT_NAME": "SL-3 R/B",
        "OBJECT_ID": "1981-103B",
        "EPOCH": "2026-05-30T18:22:47.858016",
        "MEAN_MOTION": 15.2212042,
        "ECCENTRICITY": 0.0013232,
        "INCLINATION": 81.1573,
        "RA_OF_ASC_NODE": 117.0968,
        "ARG_OF_PERICENTER": 16.4649,
        "MEAN_ANOMALY": 343.7009,
        "EPHEMERIS_TYPE": 0,
        "CLASSIFICATION_TYPE": "U",
        "NORAD_CAT_ID": 12904,
        "ELEMENT_SET_NO": 999,
        "REV_AT_EPOCH": 98571,
        "BSTAR": 0.0002537,
        "MEAN_MOTION_DOT": 5.85e-05,
        "MEAN_MOTION_DDOT": 0
    },
    {
        "OBJECT_NAME": "SL-3 R/B",
        "OBJECT_ID": "1982-013B",
        "EPOCH": "2026-05-30T19:24:58.836384",
        "MEAN_MOTION": 15.22663174,
        "ECCENTRICITY": 0.0020601,
        "INCLINATION": 81.1755,
        "RA_OF_ASC_NODE": 64.4529,
        "ARG_OF_PERICENTER": 262.4243,
        "MEAN_ANOMALY": 97.4649,
        "EPHEMERIS_TYPE": 0,
        "CLASSIFICATION_TYPE": "U",
        "NORAD_CAT_ID": 13068,
        "ELEMENT_SET_NO": 999,
        "REV_AT_EPOCH": 41684,
        "BSTAR": 0.00018813,
        "MEAN_MOTION_DOT": 4.429e-05,
        "MEAN_MOTION_DDOT": 0
    },
    {
        "OBJECT_NAME": "SL-3 R/B",
        "OBJECT_ID": "1982-039B",
        "EPOCH": "2026-05-30T21:03:48.046752",
        "MEAN_MOTION": 15.10426947,
        "ECCENTRICITY": 0.0030601,
        "INCLINATION": 81.1411,
        "RA_OF_ASC_NODE": 121.0902,
        "ARG_OF_PERICENTER": 51.473,
        "MEAN_ANOMALY": 308.9231,
        "EPHEMERIS_TYPE": 0,
        "CLASSIFICATION_TYPE": "U",
        "NORAD_CAT_ID": 13154,
        "ELEMENT_SET_NO": 999,
        "REV_AT_EPOCH": 39404,
        "BSTAR": 0.0002211,
        "MEAN_MOTION_DOT": 3.697e-05,
        "MEAN_MOTION_DDOT": 0
    },
    {
        "OBJECT_NAME": "SL-3 R/B",
        "OBJECT_ID": "1982-079B",
        "EPOCH": "2026-05-30T19:15:05.258880",
        "MEAN_MOTION": 15.25624056,
        "ECCENTRICITY": 0.0022564,
        "INCLINATION": 81.1459,
        "RA_OF_ASC_NODE": 96.0466,
        "ARG_OF_PERICENTER": 246.4398,
        "MEAN_ANOMALY": 113.4465,
        "EPHEMERIS_TYPE": 0,
        "CLASSIFICATION_TYPE": "U",
        "NORAD_CAT_ID": 13403,
        "ELEMENT_SET_NO": 999,
        "REV_AT_EPOCH": 39021,
        "BSTAR": 0.00024849,
        "MEAN_MOTION_DOT": 6.388e-05,
        "MEAN_MOTION_DDOT": 0
    },
    {
        "OBJECT_NAME": "SL-14 R/B",
        "OBJECT_ID": "1982-092B",
        "EPOCH": "2026-05-30T19:44:43.332000",
        "MEAN_MOTION": 14.86733182,
        "ECCENTRICITY": 0.0021202,
        "INCLINATION": 82.5688,
        "RA_OF_ASC_NODE": 64.5497,
        "ARG_OF_PERICENTER": 32.521,
        "MEAN_ANOMALY": 29.1164,
        "EPHEMERIS_TYPE": 0,
        "CLASSIFICATION_TYPE": "U",
        "NORAD_CAT_ID": 13553,
        "ELEMENT_SET_NO": 999,
        "REV_AT_EPOCH": 34113,
        "BSTAR": 6.1411e-05,
        "MEAN_MOTION_DOT": 5.73e-06,
        "MEAN_MOTION_DDOT": 0
    }
]